ONEWEB-0340             
1 49206U 21083W   26139.30045809 -.00000010  00000+0 -57158-4 0  9997
2 49206  87.9174 341.2033 0001907  91.6411 268.4940 13.18683504226163
ONEWEB-0341             
1 49207U 21083X   26139.07956419  .00000036  00000+0  58088-4 0  9999
2 49207  87.9167 341.2524 0001556 102.7236 257.4070 13.18685276226159
ONEWEB-0342             
1 49208U 21083Y   26139.10875580 -.00000029  00000+0 -10267-3 0  9993
2 49208  87.9167 280.2355 0001768  97.0693 263.0641 13.20771553232940
ONEWEB-0343             
1 49209U 21083Z   26139.08799252  .00000024  00000+0  27055-4 0  9999
2 49209  87.9172 341.2488 0001466  79.4508 280.6790 13.18684465226200
ONEWEB-0344             
1 49210U 21083AA  26139.24853166 -.00000223  00000+0 -64492-3 0  9992
2 49210  87.8931 326.0096 0001601 102.1392 257.9917 13.13471972227094
ONEWEB-0345             
1 49211U 21083AB  26139.01153310 -.00000277  00000+0 -79393-3 0  9997
2 49211  87.8948 326.0329 0001619  99.7432 260.3880 13.13469356227075
ONEWEB-0346             
1 49212U 21083AC  26139.08462116  .00000021  00000+0  19589-4 0  9999
2 49212  87.9165 341.2513 0002411  96.7569 263.3838 13.18684720226143
ONEWEB-0348             
1 49213U 21083AD  26139.32588542 -.00009257  00000+0 -22807-1 0  9995
2 49213  87.9176 280.1959 0001939 114.3304 245.8032 13.20815809233000
ONEWEB-0350             
1 49214U 21083AE  26139.24937192 -.00000334  00000+0 -94975-3 0  9990
2 49214  87.8950 325.9868 0001685 102.4316 257.7002 13.13469885227133
ONEWEB-0351             
1 49215U 21083AF  26139.31904234 -.00000184  00000+0 -48471-3 0  9993
2 49215  87.9170 280.1956 0001008  97.6050 262.5198 13.20774280232961
ONEWEB-0352             
1 49216U 21083AG  26139.22991080 -.00000230  00000+0 -66582-3 0  9994
2 49216  87.8943 326.0023 0001417  82.9293 277.1997 13.13468614227229
ONEWEB-0354             
1 49217U 21083AH  26139.11886305  .00001605  00000+0  39149-2 0  9999
2 49217  87.9169 280.2344 0001944 110.5942 249.5400 13.20762465232971
ONEWEB-0355             
1 49218U 21083AJ  26139.25882900  .00000066  00000+0  14623-3 0  9993
2 49218  87.8930 326.0000 0001558  92.7787 267.3521 13.13471380227100
ONEWEB-0357             
1 49219U 21083AK  26139.11549497  .00000852  00000+0  20643-2 0  9991
2 49219  87.9173 280.2297 0001639  98.5445 261.5874 13.20766528232972
ONEWEB-0332             
1 49279U 21090A   26139.14164147 -.00000123  00000+0 -36660-3 0  9993
2 49279  87.8936 295.5030 0001757  88.6999 271.4332 13.14503294223761
ONEWEB-0347             
1 49280U 21090B   26139.33264045 -.00001760  00000+0 -43604-2 0  9997
2 49280  87.9169 280.1945 0001967  91.8436 268.2923 13.20780254227238
