[{"OBJECT_NAME":"ONEWEB-0340","OBJECT_ID":"2021-083W","EPOCH":"2026-05-19T07:12:39.578976","MEAN_MOTION":13.18683504,"ECCENTRICITY":0.0001907,"INCLINATION":87.9174,"RA_OF_ASC_NODE":341.2033,"ARG_OF_PERICENTER":91.6411,"MEAN_ANOMALY":268.494,"EPHEMERIS_TYPE":0,"CLASSIFICATION_TYPE":"U","NORAD_CAT_ID":49206,"ELEMENT_SET_NO":999,"REV_AT_EPOCH":22616,"BSTAR":-5.7158e-05,"MEAN_MOTION_DOT":-1e-07,"MEAN_MOTION_DDOT":0.0},{"OBJECT_NAME":"ONEWEB-0341","OBJECT_ID":"2021-083X","EPOCH":"2026-05-19T01:54:34.346016","MEAN_MOTION":13.18685276,"ECCENTRICITY":0.0001556,"INCLINATION":87.9167,"RA_OF_ASC_NODE":341.2524,"ARG_OF_PERICENTER":102.7236,"MEAN_ANOMALY":257.407,"EPHEMERIS_TYPE":0,"CLASSIFICATION_TYPE":"U","NORAD_CAT_ID":49207,"ELEMENT_SET_NO":999,"REV_AT_EPOCH":22615,"BSTAR":5.8088e-05,"MEAN_MOTION_DOT":3.6e-07,"MEAN_MOTION_DDOT":0.0},{"OBJECT_NAME":"ONEWEB-0342","OBJECT_ID":"2021-083Y","EPOCH":"2026-05-19T02:36:36.501120","MEAN_MOTION":13.20771553,"ECCENTRICITY":0.0001768,"INCLINATION":87.9167,"RA_OF_ASC_NODE":280.2355,"ARG_OF_PERICENTER":97.0693,"MEAN_ANOMALY":263.0641,"EPHEMERIS_TYPE":0,"CLASSIFICATION_TYPE":"U","NORAD_CAT_ID":49208,"ELEMENT_SET_NO":999,"REV_AT_EPOCH":23294,"BSTAR":-0.00010267,"MEAN_MOTION_DOT":-2.9e-07,"MEAN_MOTION_DDOT":0.0},{"OBJECT_NAME":"ONEWEB-0343","OBJECT_ID":"2021-083Z","EPOCH":"2026-05-19T02:06:42.553728","MEAN_MOTION":13.18684465,"ECCENTRICITY":0.0001466,"INCLINATION":87.9172,"RA_OF_ASC_NODE":341.2488,"ARG_OF_PERICENTER":79.4508,"MEAN_ANOMALY":280.679,"EPHEMERIS_TYPE":0,"CLASSIFICATION_TYPE":"U","NORAD_CAT_ID":49209,"ELEMENT_SET_NO":999,"REV_AT_EPOCH":22620,"BSTAR":2.7055e-05,"MEAN_MOTION_DOT":2.4e-07,"MEAN_MOTION_DDOT":0.0},{"OBJECT_NAME":"ONEWEB-0344","OBJECT_ID":"2021-083AA","EPOCH":"2026-05-19T05:57:53.135424","MEAN_MOTION":13.13471972,"ECCENTRICITY":0.0001601,"INCLINATION":87.8931,"RA_OF_ASC_NODE":326.0096,"ARG_OF_PERICENTER":102.1392,"MEAN_ANOMALY":257.9917,"EPHEMERIS_TYPE":0,"CLASSIFICATION_TYPE":"U","NORAD_CAT_ID":49210,"ELEMENT_SET_NO":999,"REV_AT_EPOCH":22709,"BSTAR":-0.0006449200000000001,"MEAN_MOTION_DOT":-2.23e-06,"MEAN_MOTION_DDOT":0.0},{"OBJECT_NAME":"ONEWEB-0345","OBJECT_ID":"2021-083AB","EPOCH":"2026-05-19T00:16:36.459840","MEAN_MOTION":13.13469356,"ECCENTRICITY":0.0001619,"INCLINATION":87.8948,"RA_OF_ASC_NODE":326.0329,"ARG_OF_PERICENTER":99.7432,"MEAN_ANOMALY":260.388,"EPHEMERIS_TYPE":0,"CLASSIFICATION_TYPE":"U","NORAD_CAT_ID":49211,"ELEMENT_SET_NO":999,"REV_AT_EPOCH":22707,"BSTAR":-0.0007939300000000001,"MEAN_MOTION_DOT":-2.77e-06,"MEAN_MOTION_DDOT":0.0},{"OBJECT_NAME":"ONEWEB-0346","OBJECT_ID":"2021-083AC","EPOCH":"2026-05-19T02:01:51.268224","MEAN_MOTION":13.1868472,"ECCENTRICITY":0.0002411,"INCLINATION":87.9165,"RA_OF_ASC_NODE":341.2513,"ARG_OF_PERICENTER":96.7569,"MEAN_ANOMALY":263.3838,"EPHEMERIS_TYPE":0,"CLASSIFICATION_TYPE":"U","NORAD_CAT_ID":49212,"ELEMENT_SET_NO":999,"REV_AT_EPOCH":22614,"BSTAR":1.9589e-05,"MEAN_MOTION_DOT":2.1e-07,"MEAN_MOTION_DDOT":0.0},{"OBJECT_NAME":"ONEWEB-0348","OBJECT_ID":"2021-083AD","EPOCH":"2026-05-19T07:49:16.500288","MEAN_MOTION":13.20815809,"ECCENTRICITY":0.0001939,"INCLINATION":87.9176,"RA_OF_ASC_NODE":280.1959,"ARG_OF_PERICENTER":114.3304,"MEAN_ANOMALY":245.8032,"EPHEMERIS_TYPE":0,"CLASSIFICATION_TYPE":"U","NORAD_CAT_ID":49213,"ELEMENT_SET_NO":999,"REV_AT_EPOCH":23300,"BSTAR":-0.022807,"MEAN_MOTION_DOT":-9.257e-05,"MEAN_MOTION_DDOT":0.0},{"OBJECT_NAME":"ONEWEB-0350","OBJECT_ID":"2021-083AE","EPOCH":"2026-05-19T05:59:05.733888","MEAN_MOTION":13.13469885,"ECCENTRICITY":0.0001685,"INCLINATION":87.895,"RA_OF_ASC_NODE":325.9868,"ARG_OF_PERICENTER":102.4316,"MEAN_ANOMALY":257.7002,"EPHEMERIS_TYPE":0,"CLASSIFICATION_TYPE":"U","NORAD_CAT_ID":49214,"ELEMENT_SET_NO":999,"REV_AT_EPOCH":22713,"BSTAR":-0.00094975,"MEAN_MOTION_DOT":-3.34e-06,"MEAN_MOTION_DDOT":0.0},{"OBJECT_NAME":"ONEWEB-0351","OBJECT_ID":"2021-083AF","EPOCH":"2026-05-19T07:39:25.258176","MEAN_MOTION":13.2077428,"ECCENTRICITY":0.0001008,"INCLINATION":87.917,"RA_OF_ASC_NODE":280.1956,"ARG_OF_PERICENTER":97.605,"MEAN_ANOMALY":262.5198,"EPHEMERIS_TYPE":0,"CLASSIFICATION_TYPE":"U","NORAD_CAT_ID":49215,"ELEMENT_SET_NO":999,"REV_AT_EPOCH":23296,"BSTAR":-0.00048470999999999996,"MEAN_MOTION_DOT":-1.84e-06,"MEAN_MOTION_DDOT":0.0},{"OBJECT_NAME":"ONEWEB-0352","OBJECT_ID":"2021-083AG","EPOCH":"2026-05-19T05:31:04.293120","MEAN_MOTION":13.13468614,"ECCENTRICITY":0.0001417,"INCLINATION":87.8943,"RA_OF_ASC_NODE":326.0023,"ARG_OF_PERICENTER":82.9293,"MEAN_ANOMALY":277.1997,"EPHEMERIS_TYPE":0,"CLASSIFICATION_TYPE":"U","NORAD_CAT_ID":49216,"ELEMENT_SET_NO":999,"REV_AT_EPOCH":22722,"BSTAR":-0.00066582,"MEAN_MOTION_DOT":-2.3e-06,"MEAN_MOTION_DDOT":0.0},{"OBJECT_NAME":"ONEWEB-0354","OBJECT_ID":"2021-083AH","EPOCH":"2026-05-19T02:51:09.767520","MEAN_MOTION":13.20762465,"ECCENTRICITY":0.0001944,"INCLINATION":87.9169,"RA_OF_ASC_NODE":280.2344,"ARG_OF_PERICENTER":110.5942,"MEAN_ANOMALY":249.54,"EPHEMERIS_TYPE":0,"CLASSIFICATION_TYPE":"U","NORAD_CAT_ID":49217,"ELEMENT_SET_NO":999,"REV_AT_EPOCH":23297,"BSTAR":0.0039149,"MEAN_MOTION_DOT":1.605e-05,"MEAN_MOTION_DDOT":0.0},{"OBJECT_NAME":"ONEWEB-0355","OBJECT_ID":"2021-083AJ","EPOCH":"2026-05-19T06:12:42.825600","MEAN_MOTION":13.1347138,"ECCENTRICITY":0.0001558,"INCLINATION":87.893,"RA_OF_ASC_NODE":326.0,"ARG_OF_PERICENTER":92.7787,"MEAN_ANOMALY":267.3521,"EPHEMERIS_TYPE":0,"CLASSIFICATION_TYPE":"U","NORAD_CAT_ID":49218,"ELEMENT_SET_NO":999,"REV_AT_EPOCH":22710,"BSTAR":0.00014623000000000001,"MEAN_MOTION_DOT":6.6e-07,"MEAN_MOTION_DDOT":0.0},{"OBJECT_NAME":"ONEWEB-0357","OBJECT_ID":"2021-083AK","EPOCH":"2026-05-19T02:46:18.765408","MEAN_MOTION":13.20766528,"ECCENTRICITY":0.0001639,"INCLINATION":87.9173,"RA_OF_ASC_NODE":280.2297,"ARG_OF_PERICENTER":98.5445,"MEAN_ANOMALY":261.5874,"EPHEMERIS_TYPE":0,"CLASSIFICATION_TYPE":"U","NORAD_CAT_ID":49219,"ELEMENT_SET_NO":999,"REV_AT_EPOCH":23297,"BSTAR":0.0020643000000000002,"MEAN_MOTION_DOT":8.52e-06,"MEAN_MOTION_DDOT":0.0},{"OBJECT_NAME":"ONEWEB-0332","OBJECT_ID":"2021-090A","EPOCH":"2026-05-19T03:23:57.823008","MEAN_MOTION":13.14503294,"ECCENTRICITY":0.0001757,"INCLINATION":87.8936,"RA_OF_ASC_NODE":295.503,"ARG_OF_PERICENTER":88.6999,"MEAN_ANOMALY":271.4332,"EPHEMERIS_TYPE":0,"CLASSIFICATION_TYPE":"U","NORAD_CAT_ID":49279,"ELEMENT_SET_NO":999,"REV_AT_EPOCH":22376,"BSTAR":-0.00036659999999999997,"MEAN_MOTION_DOT":-1.23e-06,"MEAN_MOTION_DDOT":0.0},{"OBJECT_NAME":"ONEWEB-0347","OBJECT_ID":"2021-090B","EPOCH":"2026-05-19T07:59:00.134880","MEAN_MOTION":13.20780254,"ECCENTRICITY":0.0001967,"INCLINATION":87.9169,"RA_OF_ASC_NODE":280.1945,"ARG_OF_PERICENTER":91.8436,"MEAN_ANOMALY":268.2923,"EPHEMERIS_TYPE":0,"CLASSIFICATION_TYPE":"U","NORAD_CAT_ID":49280,"ELEMENT_SET_NO":999,"REV_AT_EPOCH":22723,"BSTAR":-0.0043603999999999995,"MEAN_MOTION_DOT":-1.76e-05,"MEAN_MOTION_DDOT":0.0}]